1 36585U 10022A   21001.38426105 -.00000008  00000-0  00000+0 0  9993
2 36585  55.1660 288.9639 0094004  52.4816 125.7631  2.00561938 77610
1 36585U 10022A   21001.38426105 -.00000008  00000-0  00000-0 0  9994
2 36585  55.1660 288.9639 0094004  52.4816 125.7631  2.00561938 77621
1 36585U 10022A   21004.40259529 -.00000021  00000-0  00000+0 0  9998
2 36585  55.1634 288.8425 0094167  52.5099 145.1094  2.00562028 77673
1 36585U 10022A   21004.40259529 -.00000021  00000-0  00000-0 0  9999
2 36585  55.1634 288.8425 0094167  52.5099 145.1094  2.00562028 77684
1 36585U 10022A   21005.36574867 -.00000028  00000-0  00000-0 0  9997
2 36585  55.1627 288.8037 0094228  52.5199 120.5401  2.00562059 77700
1 36585U 10022A   21006.36659559 -.00000034  00000-0  00000-0 0  9997
2 36585  55.1620 288.7635 0094290  52.5316 123.1858  2.00562099 77727
1 36585U 10022A   21007.36122574 -.00000037  00000-0  00000-0 0  9993
2 36585  55.1613 288.7234 0094344  52.5432 121.3430  2.00562140 77748
1 36585U 10022A   21008.36309561 -.00000037  00000-0  00000-0 0  9997
2 36585  55.1605 288.6831 0094404  52.5556 124.7271  2.00562191 77763
1 36585U 10022A   21008.86260306 -.00000036  00000-0  00000-0 0  9994
2 36585  55.1601 288.6630 0094433  52.5621 125.3882  2.00562219 77778
1 36585U 10022A   21009.36251062 -.00000035  00000-0  00000-0 0  9998
2 36585  55.1597 288.6429 0094461  52.5685 126.3383  2.00562247 77788
1 36585U 10022A   21011.36010855 -.00000026  00000-0  00000-0 0  9994
2 36585  55.1581 288.5625 0094563  52.5987 128.6674  2.00562376 77822
1 36585U 10022A   21013.33942953 -.00000023  00000-0  00000-0 0  9993
2 36585  55.1567 288.4829 0094691  52.6355 117.7936  2.00562511 77868
1 36585U 10022A   21015.26089245 -.00000031  00000-0  00000-0 0  9992
2 36585  55.1551 288.4056 0094803  52.6644  65.1521  2.00562650 77904
1 36585U 10022A   21016.22744037 -.00000037  00000-0  00000-0 0  9992
2 36585  55.1544 288.3667 0094858  52.6825  43.0279  2.00562722 77921
1 36585U 10022A   21018.27758064 -.00000049  00000-0  00000-0 0  9997
2 36585  55.1528 288.2843 0094960  52.7174  83.2931  2.00562871 77960
1 36585U 10022A   21018.84002354 -.00000050  00000-0  00000-0 0  9996
2 36585  55.1524 288.2617 0094992  52.7308 129.3909  2.00562910 77971
1 36585U 10022A   21020.33885237 -.00000048  00000-0  00000-0 0  9999
2 36585  55.1512 288.2014 0095046  52.7521 131.5972  2.00563010 78009
1 36585U 10022A   21022.32265404 -.00000033  00000-0  00000-0 0  9992
2 36585  55.1497 288.1215 0095118  52.7808 123.9709  2.00563130 78041
1 36585U 10022A   21023.32477549 -.00000022  00000-0  00000-0 0  9996
2 36585  55.1490 288.0812 0095167  52.7959 127.5369  2.00563177 78062
1 36585U 10022A   21024.81576977 -.00000006  00000-0  00000-0 0  9998
2 36585  55.1478 288.0212 0095247  52.8203 124.0843  2.00563240 78097
1 36585U 10022A   21025.32355958 -.00000001  00000-0  00000-0 0  9994
2 36585  55.1475 288.0007 0095316  52.8410 130.7126  2.00563251 78105
1 36585U 10022A   21027.81246645  .00000015  00000-0  00000+0 0  9995
2 36585  55.1456 287.9004 0095446  52.8886 127.7800  2.00563307 78141
1 36585U 10022A   21027.81246645  .00000015  00000-0  00000-0 0  9996
2 36585  55.1456 287.9004 0095446  52.8886 127.7800  2.00563307 78152
1 36585U 10022A   21028.34230824  .00000016  00000-0  00000-0 0  9998
2 36585  55.1453 287.8791 0095470  52.8977 150.3434  2.00563321 78161
1 36585U 10022A   21031.16732374  .00000008  00000-0  00000-0 0  9990
2 36585  55.1431 287.7653 0095569  52.9235  30.1216  2.00563412 78221
1 36585U 10022A   21032.28274440  .00000001  00000-0  00000-0 0  9992
2 36585  55.1423 287.7204 0095631  52.9428 115.4928  2.00563447 78245
1 36585U 10022A   21033.28588031 -.00000005  00000-0  00000-0 0  9992
2 36585  55.1415 287.6800 0095680  52.9581 119.7929  2.00563484 78262
1 36585U 10022A   21034.28593959 -.00000009  00000-0  00000-0 0  9992
2 36585  55.1408 287.6396 0095723  52.9727 121.8724  2.00563525 78289
1 36585U 10022A   21035.16608545 -.00000010  00000-0  00000-0 0  9990
2 36585  55.1401 287.6041 0095776  52.9933  37.3620  2.00563562 78306
1 36585U 10022A   21036.28906784 -.00000008  00000-0  00000-0 0  9997
2 36585  55.1393 287.5589 0095824  53.0111 128.1955  2.00563620 78323
1 36585U 10022A   21037.28611983 -.00000004  00000-0  00000-0 0  9998
2 36585  55.1386 287.5187 0095872  53.0315 128.0983  2.00563678 78343
1 36585U 10022A   21038.28812028  .00000000  00000-0  00000-0 0  9997
2 36585  55.1378 287.4783 0095918  53.0524 131.5736  2.00563739 78363
1 36585U 10022A   21039.20768433  .00000004  00000-0  00000-0 0  9994
2 36585  55.1372 287.4413 0095960  53.0721  75.5270  2.00563797 78389
1 36585U 10022A   21040.17239278  .00000005  00000-0  00000-0 0  9993
2 36585  55.1365 287.4023 0095996  53.0902  52.0790  2.00563866 78405
1 36585U 10022A   21041.27113087  .00000003  00000-0  00000-0 0  9992
2 36585  55.1357 287.3581 0096042  53.1132 125.4026  2.00563946 78421
1 36585U 10022A   21041.78243889  .00000000  00000-0  00000-0 0  9999
2 36585  55.1353 287.3375 0096059  53.1199 134.5872  2.00563982 78430
1 36585U 10022A   21042.29936802 -.00000003  00000-0  00000-0 0  9994
2 36585  55.1350 287.3166 0096067  53.1290 147.8284  2.00564024 78449
1 36585U 10022A   21043.14311612 -.00000009  00000-0  00000-0 0  9991
2 36585  55.1344 287.2826 0096108  53.1415  37.0466  2.00564087 78462
1 36585U 10022A   21044.26937931 -.00000017  00000-0  00000-0 0  9992
2 36585  55.1336 287.2373 0096155  53.1668 130.2433  2.00564171 78488
1 36585U 10022A   21045.75738985 -.00000025  00000-0  00000-0 0  9994
2 36585  55.1325 287.1773 0096178  53.1926 124.6411  2.00564286 78515
1 36585U 10022A   21045.92317691 -.00000025  00000-0  00000-0 0  9990
2 36585  55.1324 287.1707 0096200  53.1994 244.3412  2.00564293 78511
